ONEWEB-0158             
1 48054U 21025N   26166.14770041 -.00000432  00000+0 -12185-2 0  9995
2 48054  87.8958 320.6228 0001607  94.4403 265.6910 13.13471180253366
ONEWEB-0157             
1 48055U 21025P   26166.17309954  .00000072  00000+0  16289-3 0  9998
2 48055  87.8956 320.6238 0002037 106.6134 253.5220 13.13470190253305
ONEWEB-0162             
1 48056U 21025Q   26166.14925247 -.00000369  00000+0 -10450-2 0  9999
2 48056  87.8955 320.6291 0001994  94.2674 265.8683 13.13469403253276
ONEWEB-0155             
1 48057U 21025R   26166.15615746 -.00000307  00000+0 -87508-3 0  9992
2 48057  87.8956 320.6241 0001802 101.9687 258.1644 13.13470203253419
ONEWEB-0149             
1 48058U 21025S   26166.17817566  .00000271  00000+0  70632-3 0  9997
2 48058  87.8960 320.6233 0002014  93.6336 266.5023 13.13470224253226
ONEWEB-0148             
1 48059U 21025T   26166.14092369 -.00000252  00000+0 -72386-3 0  9990
2 48059  87.8952 320.6374 0002427  93.5830 266.5577 13.13470328253342
ONEWEB-0160             
1 48060U 21025U   26166.15784806 -.00000251  00000+0 -72331-3 0  9996
2 48060  87.8951 320.6303 0001451  73.8363 286.2926 13.13471247253295
ONEWEB-0163             
1 48061U 21025V   26166.14260859 -.00000315  00000+0 -89634-3 0  9998
2 48061  87.8958 320.6274 0001958 104.1923 255.9424 13.13471115253416
ONEWEB-0159             
1 48062U 21025W   26166.13414938 -.00000139  00000+0 -41663-3 0  9991
2 48062  87.8962 320.6227 0001911 103.8526 256.2816 13.13470462253338
ONEWEB-0164             
1 48063U 21025X   26166.19171097  .00000235  00000+0  60727-3 0  9991
2 48063  87.8961 320.6178 0001752  94.9595 265.1734 13.13469317253326
ONEWEB-0167             
1 48064U 21025Y   26166.14344921 -.00000325  00000+0 -92550-3 0  9996
2 48064  87.8951 320.6374 0001653 117.6806 242.4491 13.13468223253303
ONEWEB-0166             
1 48065U 21025Z   26166.16630247 -.00000126  00000+0 -37910-3 0  9996
2 48065  87.8961 320.6042 0002017  96.7391 263.3968 13.13471907253380
ONEWEB-0151             
1 48066U 21025AA  26166.24418152 -.00000011  00000+0 -64971-4 0  9996
2 48066  87.8952 320.6055 0001734  99.8202 260.3123 13.13470934253339
ONEWEB-0170             
1 48067U 21025AB  26166.17647364  .00000138  00000+0  34308-3 0  9996
2 48067  87.8954 320.6210 0001358  94.5116 265.6168 13.13470729253286
ONEWEB-0168             
1 48068U 21025AC  26166.16123447 -.00000212  00000+0 -61606-3 0  9993
2 48068  87.8960 320.6238 0001961 100.6981 259.4369 13.13470806253294
ONEWEB-0173             
1 48069U 21025AD  26166.15277093 -.00000372  00000+0 -10547-2 0  9994
2 48069  87.8954 320.6271 0001896 107.8623 252.2713 13.13470095253535
ONEWEB-0171             
1 48070U 21025AE  26166.19001965  .00000273  00000+0  71262-3 0  9993
2 48070  87.8951 320.6279 0001719  97.5755 262.5569 13.13469592253350
ONEWEB-0172             
1 48071U 21025AF  26166.16969421  .00000018  00000+0  15309-4 0  9999
2 48071  87.8956 320.6218 0001781 102.2439 257.8890 13.13471840254243
ONEWEB-0174             
1 48072U 21025AG  26165.92255154 -.00000278  00000+0 -79708-3 0  9996
2 48072  87.8956 320.6707 0001987  96.7907 263.3448 13.13470327253533
ONEWEB-0175             
1 48073U 21025AH  26166.18155703  .00000293  00000+0  76782-3 0  9999
2 48073  87.8962 320.6030 0001489 101.6149 258.5148 13.13470775253227
ONEWEB-0177             
1 48074U 21025AJ  26165.96486808  .00000230  00000+0  59598-3 0  9995
2 48074  87.8958 320.6646 0002003 100.2452 259.8904 13.13470691253389
ONEWEB-0178             
1 48075U 21025AK  26166.13597237 -.00000189  00000+0 -55212-3 0  9999
2 48075  87.8944 320.6432 0001707 104.4270 255.7049 13.13468440253454
ONEWEB-0108             
1 48076U 21025AL  26166.17139530  .00000165  00000+0  41577-3 0  9993
2 48076  87.8959 320.6148 0001899  90.2926 269.8421 13.13470538253380
ONEWEB-0169             
1 48077U 21025AM  26166.12738063  .00000074  00000+0  16777-3 0  9998
2 48077  87.8954 320.6316 0001938  96.1898 263.9452 13.13469955252031
ONEWEB-0176             
1 48210U 21031A   26166.27604755  .00000047  00000+0  91289-4 0  9992
2 48210  87.8964 290.0800 0001871 103.6151 256.5187 13.14502924248067
ONEWEB-0184             
1 48211U 21031B   26166.24908678  .00000230  00000+0  58583-3 0  9994
2 48211  87.8968 290.0861 0001472 124.7550 235.3719 13.14502792248039
ONEWEB-0179             
1 48212U 21031C   26166.26987261  .00000210  00000+0  63851-4 0  9995
2 48212  87.8988 287.4340 0218676 263.5270  94.0984 14.25521848248772
ONEWEB-0180             
1 48213U 21031D   26166.10002640  .00000212  00000+0  53607-3 0  9997
2 48213  87.8966 290.1120 0002165 112.2863 247.8497 13.14502767247949
ONEWEB-0218             
1 48214U 21031E   26166.27446145  .00000055  00000+0  11264-3 0  9996
2 48214  87.8972 290.0763 0001762 128.5028 231.6260 13.14502200248126
ONEWEB-0209             
1 48215U 21031F   26166.26335102  .00000206  00000+0  52073-3 0  9997
2 48215  87.8961 290.0958 0002132 104.2892 255.8474 13.14501605248126
